     2.10           G: GLONASS NAV DATA                     RINEX VERSION / TYPE
teqc  2015Jun23                         20211005 01:25:49UTCPGM / RUN BY / DATE
Linux 2.4.21-27.ELsmp|Opteron|gcc -static|Linux x86_64|=+   COMMENT
  2021     9    11   -0.000000000000D+00                    CORR TO SYSTEM TIME
                                                            END OF HEADER
21 21  9 12  4 45  0.0-2.386020496488D-04-3.637978807092D-12 1.620000000000D+04
   -1.499542333984D+04-1.027040481567D-01-2.793967723846D-09 0.000000000000D+00
    2.035666748047D+04 4.905786514282D-01 0.000000000000D+00 4.000000000000D+00
    3.225466308594D+03-3.573374748230D+00-9.313225746155D-10 0.000000000000D+00
22 21  9 12  4 45  0.0-1.327963545918D-04-9.094947017729D-13 1.620000000000D+04
   -4.571301757812D+03-1.444706916809D+00-0.000000000000D+00 0.000000000000D+00
    1.773216503906D+04 1.972713470459D+00-0.000000000000D+00-3.000000000000D+00
    1.778292431641D+04-2.328390121460D+00-1.862645149231D-09 0.000000000000D+00
 7 21  9 12  5 15  0.0-4.124175757170D-05 0.000000000000D+00 1.800000000000D+04
   -4.305110351562D+03-1.320757865906D+00 0.000000000000D+00 0.000000000000D+00
    1.338203320312D+04-2.594638824463D+00-0.000000000000D+00 5.000000000000D+00
    2.132841259766D+04 1.358947753906D+00-2.793967723846D-09 0.000000000000D+00
 8 21  9 12  5 15  0.0-6.086286157370D-05 0.000000000000D+00 1.800000000000D+04
    6.744213867188D+03-5.077867507935D-01-0.000000000000D+00 0.000000000000D+00
    2.253051025391D+04-1.264927864075D+00-9.313225746155D-10 6.000000000000D+00
    9.957996093750D+03 3.219473838806D+00-0.000000000000D+00 0.000000000000D+00
 1 21  9 12  5 15  0.0 8.519552648067D-05 0.000000000000D+00 1.800000000000D+04
    1.451534521484D+04 4.915580749512D-01-0.000000000000D+00 0.000000000000D+00
    2.024461279297D+04 5.811643600464D-01-9.313225746155D-10 1.000000000000D+00
   -5.467503417969D+03 3.460472106934D+00 9.313225746155D-10 0.000000000000D+00
10 21  9 12  5 15  0.0-7.488951086998D-05-0.000000000000D+00 1.800000000000D+04
   -1.744466845703D+04-2.311098098755D+00-4.656612873077D-09 0.000000000000D+00
    7.817606445312D+03 6.870365142822D-02 9.313225746155D-10-7.000000000000D+00
   -1.685092871094D+04 2.430551528931D+00 0.000000000000D+00 0.000000000000D+00
21 21  9 12  5 15  0.0-2.386076375842D-04-2.728484105319D-12 1.800000000000D+04
   -1.466512890625D+04 4.352045059204D-01-3.725290298462D-09 0.000000000000D+00
    2.059327343750D+04-2.526130676270D-01 9.313225746155D-10 4.000000000000D+00
   -3.248304687500D+03-3.572880744934D+00-9.313225746155D-10 0.000000000000D+00
22 21  9 12  5 15  0.0-1.327991485596D-04-9.094947017729D-13 1.800000000000D+04
   -6.567321777344D+03-7.777729034424D-01-9.313225746155D-10 0.000000000000D+00
    2.100158349609D+04 1.612565994263D+00 0.000000000000D+00-3.000000000000D+00
    1.296009472656D+04-2.995468139648D+00-1.862645149231D-09 0.000000000000D+00
21 21  9 12  5 45  0.0-2.386141568422D-04-2.728484105319D-12 1.980000000000D+04
   -1.357081201172D+04 7.376928329468D-01-3.725290298462D-09 0.000000000000D+00
    1.938963085938D+04-1.091211318970D+00 9.313225746155D-10 4.000000000000D+00
   -9.470349121094D+03-3.295522689819D+00-0.000000000000D+00 0.000000000000D+00
10 21  9 12  5 45  0.0-7.489137351513D-05-0.000000000000D+00 1.980000000000D+04
   -2.099519042969D+04-1.602856636047D+00-3.725290298462D-09 0.000000000000D+00
    8.194841796875D+03 3.171825408936D-01 1.862645149231D-09-7.000000000000D+00
   -1.187912207031D+04 3.057774543762D+00-9.313225746155D-10 0.000000000000D+00
 1 21  9 12  5 45  0.0 8.519645780325D-05 0.000000000000D+00 1.980000000000D+04
    1.502779589844D+04 4.129409790039D-02-0.000000000000D+00 0.000000000000D+00
    2.058495361328D+04-1.851844787598D-01-9.313225746155D-10 1.000000000000D+00
    8.923364257812D+02 3.560096740723D+00 0.000000000000D+00 0.000000000000D+00
 8 21  9 12  5 45  0.0-6.086286157370D-05 0.000000000000D+00 1.980000000000D+04
    5.295636718750D+03-1.115507125854D+00 0.000000000000D+00 0.000000000000D+00
    1.976629833984D+04-1.764126777649D+00-0.000000000000D+00 6.000000000000D+00
    1.529503466797D+04 2.672319412231D+00-9.313225746155D-10 0.000000000000D+00
22 21  9 12  5 45  0.0-1.328019425273D-04-9.094947017729D-13 1.980000000000D+04
   -7.421447265625D+03-1.938123703003D-01-1.862645149231D-09 0.000000000000D+00
    2.337965722656D+04 9.909706115723D-01 0.000000000000D+00-3.000000000000D+00
    7.138479980469D+03-3.431080818176D+00-1.862645149231D-09 0.000000000000D+00
 7 21  9 12  5 45  0.0-4.124082624912D-05 0.000000000000D+00 1.995000000000D+04
   -7.141751953125D+03-1.813244819641D+00 0.000000000000D+00 0.000000000000D+00
    8.708546386719D+03-2.550420761108D+00 0.000000000000D+00 5.000000000000D+00
    2.292200878906D+04 4.001808166504D-01-2.793967723846D-09 0.000000000000D+00
23 21  9 12  5 45  0.0-1.317448914051D-05-0.000000000000D+00 2.103000000000D+04
    5.680380371094D+03-1.219397544861D+00 9.313225746155D-10 0.000000000000D+00
    1.122093994141D+04 2.791394233704D+00-9.313225746155D-10 3.000000000000D+00
    2.217941650391D+04-1.100121498108D+00-1.862645149231D-09 0.000000000000D+00
21 21  9 12  6 15  0.0-2.386197447777D-04-2.728484105319D-12 2.160000000000D+04
   -1.216858251953D+04 7.765321731567D-01-3.725290298462D-09 0.000000000000D+00
    1.667788085938D+04-1.908203125000D+00 1.862645149231D-09 4.000000000000D+00
   -1.495869335938D+04-2.763011932373D+00 0.000000000000D+00 0.000000000000D+00
 8 21  9 12  6 15  0.0-6.086193025112D-05 0.000000000000D+00 2.160000000000D+04
    2.711068359375D+03-1.751782417297D+00 0.000000000000D+00 0.000000000000D+00
    1.634333837891D+04-1.992026329041D+00-0.000000000000D+00 6.000000000000D+00
    1.945496972656D+04 1.920057296753D+00-1.862645149231D-09 0.000000000000D+00
 1 21  9 12  6 15  0.0 8.519738912582D-05 0.000000000000D+00 2.160000000000D+04
    1.455257373047D+04-5.935106277466D-01-0.000000000000D+00 0.000000000000D+00
    1.967115966797D+04-7.971448898315D-01-9.313225746155D-10 1.000000000000D+00
    7.183117675781D+03 3.384229660034D+00-0.000000000000D+00 0.000000000000D+00
10 21  9 12  6 15  0.0-7.489230483770D-05-0.000000000000D+00 2.160000000000D+04
   -2.313400488281D+04-7.603712081909D-01-2.793967723846D-09 0.000000000000D+00
    8.824049316406D+03 3.413696289062D-01 2.793967723846D-09-7.000000000000D+00
   -5.985479003906D+03 3.448057174683D+00-1.862645149231D-09 0.000000000000D+00
22 21  9 12  6 15  0.0-1.328047364950D-04-9.094947017729D-13 2.160000000000D+04
   -7.372383789062D+03 2.124109268188D-01-2.793967723846D-09 0.000000000000D+00
    2.445467626953D+04 1.797828674316D-01 9.313225746155D-10-3.000000000000D+00
    7.672568359375D+02-3.602287292480D+00-9.313225746155D-10 0.000000000000D+00
23 21  9 12  6 15  0.0-1.317635178566D-05-0.000000000000D+00 2.160000000000D+04
    3.981648925781D+03-6.679039001465D-01 0.000000000000D+00 0.000000000000D+00
    1.609960058594D+04 2.577662467957D+00-0.000000000000D+00 3.000000000000D+00
    1.936641308594D+04-2.005130767822D+00-1.862645149231D-09 0.000000000000D+00
21 21  9 12  6 45  0.0-2.386253327131D-04-2.728484105319D-12 2.340000000000D+04
   -1.092312841797D+04 5.704555511475D-01-2.793967723846D-09 0.000000000000D+00
    1.260353125000D+04-2.586798667908D+00 2.793967723846D-09 4.000000000000D+00
   -1.928870556641D+04-2.016912460327D+00 9.313225746155D-10 0.000000000000D+00
10 21  9 12  6 45  0.0-7.489416748285D-05-0.000000000000D+00 2.340000000000D+04
   -2.372015039062D+04 1.026992797852D-01-1.862645149231D-09 0.000000000000D+00
    9.275186035156D+03 1.194496154785D-01 2.793967723846D-09-7.000000000000D+00
    3.728828125000D+02 3.570713996887D+00-2.793967723846D-09 0.000000000000D+00
 1 21  9 12  6 45  0.0 8.519832044840D-05 0.000000000000D+00 2.340000000000D+04
    1.283351464844D+04-1.323702812195D+00-0.000000000000D+00 0.000000000000D+00
    1.785319677734D+04-1.180526733398D+00-0.000000000000D+00 1.000000000000D+00
    1.291801318359D+04 2.946465492249D+00-9.313225746155D-10 0.000000000000D+00
 8 21  9 12  6 45  0.0-6.086379289627D-05 0.000000000000D+00 2.340000000000D+04
   -9.613950195312D+02-2.306057929993D+00 0.000000000000D+00 0.000000000000D+00
    1.276239550781D+04-1.942456245422D+00-0.000000000000D+00 6.000000000000D+00
    2.211865527344D+04 1.020524024963D+00-2.793967723846D-09 0.000000000000D+00
22 21  9 12  6 45  0.0-1.328065991402D-04-9.094947017729D-13 2.340000000000D+04
   -6.800756835938D+03 3.801403045654D-01-2.793967723846D-09 0.000000000000D+00
    2.397494140625D+04-7.174415588379D-01 1.862645149231D-09-3.000000000000D+00
   -5.663039062500D+03-3.496344566345D+00-9.313225746155D-10 0.000000000000D+00
23 21  9 12  6 45  0.0-1.317728310823D-05-0.000000000000D+00 2.340000000000D+04
    3.242772460938D+03-1.712360382080D-01-0.000000000000D+00 0.000000000000D+00
    2.032264843750D+04 2.069038391113D+00 0.000000000000D+00 3.000000000000D+00
    1.505429492188D+04-2.754963874817D+00-1.862645149231D-09 0.000000000000D+00
12 21  9 12  6 45  0.0 2.613021060824D-04 2.728484105319D-12 2.502000000000D+04
    4.759164062500D+03-2.943558692932D+00-1.862645149231D-09 0.000000000000D+00
    9.921934570312D+03 1.136288642883D+00 9.313225746155D-10-1.000000000000D+00
   -2.297919091797D+04-1.172895431519D-01 1.862645149231D-09 0.000000000000D+00
10 21  9 12  7 15  0.0-7.489509880543D-05-0.000000000000D+00 2.520000000000D+04
   -2.282121777344D+04 8.714799880981D-01-0.000000000000D+00 0.000000000000D+00
    9.119590820312D+03-3.251819610596D-01 1.862645149231D-09-7.000000000000D+00
    6.702281738281D+03 3.416090011597D+00-2.793967723846D-09 0.000000000000D+00
21 21  9 12  7 15  0.0-2.386299893260D-04-2.728484105319D-12 2.520000000000D+04
   -1.022537988281D+04 1.814126968384D-01-1.862645149231D-09 0.000000000000D+00
    7.507676757812D+03-3.029469490051D+00 2.793967723846D-09 4.000000000000D+00
   -2.212601806641D+04-1.115280151367D+00 9.313225746155D-10 0.000000000000D+00
